[{"OBJECT_NAME":"STARLINK-32170","OBJECT_ID":"2024-150J","EPOCH":"2026-03-09T22:16:59.822688","MEAN_MOTION":15.30191066,"ECCENTRICITY":0.00010025,"INCLINATION":53.1601,"RA_OF_ASC_NODE":306.222,"ARG_OF_PERICENTER":83.1078,"MEAN_ANOMALY":277.0037,"EPHEMERIS_TYPE":0,"CLASSIFICATION_TYPE":"U","NORAD_CAT_ID":60591,"ELEMENT_SET_NO":999,"REV_AT_EPOCH":8799,"BSTAR":0.00010696673,"MEAN_MOTION_DOT":2.809e-5,"MEAN_MOTION_DDOT":0},{"OBJECT_NAME":"CZ-2C R\/B","OBJECT_ID":"2024-218A","EPOCH":"2026-03-09T22:16:31.791072","MEAN_MOTION":15.22960743,"ECCENTRICITY":0.00453409,"INCLINATION":97.5416,"RA_OF_ASC_NODE":83.973,"ARG_OF_PERICENTER":359.5317,"MEAN_ANOMALY":0.5869,"EPHEMERIS_TYPE":0,"CLASSIFICATION_TYPE":"U","NORAD_CAT_ID":62078,"ELEMENT_SET_NO":999,"REV_AT_EPOCH":7134,"BSTAR":0.00039378379,"MEAN_MOTION_DOT":9.445e-5,"MEAN_MOTION_DDOT":0}]
